[{"OBJECT_NAME":"ONEWEB-0012","OBJECT_ID":"2019-010A","EPOCH":"2025-12-20T03:04:47.343936","MEAN_MOTION":13.16597049,"ECCENTRICITY":0.00019695,"INCLINATION":87.9036,"RA_OF_ASC_NODE":264.4441,"ARG_OF_PERICENTER":82.5073,"MEAN_ANOMALY":277.6281,"EPHEMERIS_TYPE":0,"CLASSIFICATION_TYPE":"U","NORAD_CAT_ID":44057,"ELEMENT_SET_NO":999,"REV_AT_EPOCH":32800,"BSTAR":0.00023015268,"MEAN_MOTION_DOT":1.01e-6,"MEAN_MOTION_DDOT":0},{"OBJECT_NAME":"ONEWEB-0010","OBJECT_ID":"2019-010B","EPOCH":"2025-12-20T05:30:39.183552","MEAN_MOTION":13.1647868,"ECCENTRICITY":0.000231,"INCLINATION":87.9046,"RA_OF_ASC_NODE":264.4143,"ARG_OF_PERICENTER":63.2217,"MEAN_ANOMALY":296.9149,"EPHEMERIS_TYPE":0,"CLASSIFICATION_TYPE":"U","NORAD_CAT_ID":44058,"ELEMENT_SET_NO":999,"REV_AT_EPOCH":32806,"BSTAR":0.049751022,"MEAN_MOTION_DOT":0.00019039,"MEAN_MOTION_DDOT":0},{"OBJECT_NAME":"ONEWEB-0008","OBJECT_ID":"2019-010C","EPOCH":"2025-12-20T04:17:44.828448","MEAN_MOTION":13.16593868,"ECCENTRICITY":0.00015344,"INCLINATION":87.9047,"RA_OF_ASC_NODE":264.4216,"ARG_OF_PERICENTER":78.3984,"MEAN_ANOMALY":281.7319,"EPHEMERIS_TYPE":0,"CLASSIFICATION_TYPE":"U","NORAD_CAT_ID":44059,"ELEMENT_SET_NO":999,"REV_AT_EPOCH":32817,"BSTAR":-0.00081930552,"MEAN_MOTION_DOT":-3.0e-6,"MEAN_MOTION_DDOT":0},{"OBJECT_NAME":"ONEWEB-0007","OBJECT_ID":"2019-010D","EPOCH":"2025-12-20T05:22:37.063776","MEAN_MOTION":13.15548654,"ECCENTRICITY":0.00021295,"INCLINATION":87.9002,"RA_OF_ASC_NODE":294.939,"ARG_OF_PERICENTER":72.63,"MEAN_ANOMALY":287.5063,"EPHEMERIS_TYPE":0,"CLASSIFICATION_TYPE":"U","NORAD_CAT_ID":44060,"ELEMENT_SET_NO":999,"REV_AT_EPOCH":32784,"BSTAR":0.00025199961,"MEAN_MOTION_DOT":1.08e-6,"MEAN_MOTION_DDOT":0},{"OBJECT_NAME":"ONEWEB-0006","OBJECT_ID":"2019-010E","EPOCH":"2025-12-20T05:28:18.787008","MEAN_MOTION":13.15547789,"ECCENTRICITY":0.00019214,"INCLINATION":87.901,"RA_OF_ASC_NODE":294.8849,"ARG_OF_PERICENTER":68.6105,"MEAN_ANOMALY":291.5231,"EPHEMERIS_TYPE":0,"CLASSIFICATION_TYPE":"U","NORAD_CAT_ID":44061,"ELEMENT_SET_NO":999,"REV_AT_EPOCH":32789,"BSTAR":0.00028488325,"MEAN_MOTION_DOT":1.2e-6,"MEAN_MOTION_DDOT":0},{"OBJECT_NAME":"ONEWEB-0011","OBJECT_ID":"2019-010F","EPOCH":"2025-12-19T21:24:35.267040","MEAN_MOTION":13.15550302,"ECCENTRICITY":0.0001648,"INCLINATION":87.9004,"RA_OF_ASC_NODE":294.9613,"ARG_OF_PERICENTER":76.0089,"MEAN_ANOMALY":284.1225,"EPHEMERIS_TYPE":0,"CLASSIFICATION_TYPE":"U","NORAD_CAT_ID":44062,"ELEMENT_SET_NO":999,"REV_AT_EPOCH":32784,"BSTAR":7.147e-5,"MEAN_MOTION_DOT":4.0e-7,"MEAN_MOTION_DDOT":0},{"OBJECT_NAME":"ONEWEB-0013","OBJECT_ID":"2020-008A","EPOCH":"2025-12-19T23:39:13.435488","MEAN_MOTION":13.09439557,"ECCENTRICITY":0.00026485,"INCLINATION":87.8509,"RA_OF_ASC_NODE":89.0227,"ARG_OF_PERICENTER":111.7691,"MEAN_ANOMALY":248.3718,"EPHEMERIS_TYPE":0,"CLASSIFICATION_TYPE":"U","NORAD_CAT_ID":45131,"ELEMENT_SET_NO":999,"REV_AT_EPOCH":28261,"BSTAR":-0.0019833279,"MEAN_MOTION_DOT":-6.7e-6,"MEAN_MOTION_DDOT":0},{"OBJECT_NAME":"ONEWEB-0017","OBJECT_ID":"2020-008B","EPOCH":"2025-12-20T04:05:26.713248","MEAN_MOTION":13.103715,"ECCENTRICITY":0.00015667,"INCLINATION":87.8804,"RA_OF_ASC_NODE":71.9627,"ARG_OF_PERICENTER":97.0854,"MEAN_ANOMALY":263.0452,"EPHEMERIS_TYPE":0,"CLASSIFICATION_TYPE":"U","NORAD_CAT_ID":45132,"ELEMENT_SET_NO":999,"REV_AT_EPOCH":28450,"BSTAR":-0.0016460067,"MEAN_MOTION_DOT":-5.62e-6,"MEAN_MOTION_DDOT":0},{"OBJECT_NAME":"ONEWEB-0020","OBJECT_ID":"2020-008C","EPOCH":"2025-12-20T03:22:26.985504","MEAN_MOTION":13.10371705,"ECCENTRICITY":0.00015933,"INCLINATION":87.8808,"RA_OF_ASC_NODE":71.9555,"ARG_OF_PERICENTER":109.6254,"MEAN_ANOMALY":250.5046,"EPHEMERIS_TYPE":0,"CLASSIFICATION_TYPE":"U","NORAD_CAT_ID":45133,"ELEMENT_SET_NO":999,"REV_AT_EPOCH":28489,"BSTAR":0.0017089518,"MEAN_MOTION_DOT":6.09e-6,"MEAN_MOTION_DDOT":0},{"OBJECT_NAME":"ONEWEB-0021","OBJECT_ID":"2020-008D","EPOCH":"2025-12-20T05:33:54.117504","MEAN_MOTION":13.103698,"ECCENTRICITY":0.00018046,"INCLINATION":87.88,"RA_OF_ASC_NODE":71.9663,"ARG_OF_PERICENTER":102.3828,"MEAN_ANOMALY":257.7501,"EPHEMERIS_TYPE":0,"CLASSIFICATION_TYPE":"U","NORAD_CAT_ID":45134,"ELEMENT_SET_NO":999,"REV_AT_EPOCH":28521,"BSTAR":0.00011554065,"MEAN_MOTION_DOT":5.3e-7,"MEAN_MOTION_DDOT":0},{"OBJECT_NAME":"ONEWEB-0023","OBJECT_ID":"2020-008F","EPOCH":"2025-12-20T03:59:28.269888","MEAN_MOTION":13.10371603,"ECCENTRICITY":0.00018861,"INCLINATION":87.8798,"RA_OF_ASC_NODE":71.9601,"ARG_OF_PERICENTER":107.1425,"MEAN_ANOMALY":252.9909,"EPHEMERIS_TYPE":0,"CLASSIFICATION_TYPE":"U","NORAD_CAT_ID":45136,"ELEMENT_SET_NO":999,"REV_AT_EPOCH":28463,"BSTAR":-0.0014030935,"MEAN_MOTION_DOT":-4.77e-6,"MEAN_MOTION_DDOT":0},{"OBJECT_NAME":"ONEWEB-0024","OBJECT_ID":"2020-008G","EPOCH":"2025-12-19T23:40:08.803200","MEAN_MOTION":13.10371771,"ECCENTRICITY":0.00017363,"INCLINATION":87.8823,"RA_OF_ASC_NODE":71.9676,"ARG_OF_PERICENTER":102.3883,"MEAN_ANOMALY":257.7439,"EPHEMERIS_TYPE":0,"CLASSIFICATION_TYPE":"U","NORAD_CAT_ID":45137,"ELEMENT_SET_NO":999,"REV_AT_EPOCH":28477,"BSTAR":0.0016599532,"MEAN_MOTION_DOT":5.92e-6,"MEAN_MOTION_DDOT":0},{"OBJECT_NAME":"ONEWEB-0025","OBJECT_ID":"2020-008H","EPOCH":"2025-12-20T05:35:05.427744","MEAN_MOTION":13.10369552,"ECCENTRICITY":0.00020591,"INCLINATION":87.8806,"RA_OF_ASC_NODE":71.9211,"ARG_OF_PERICENTER":106.9899,"MEAN_ANOMALY":253.1454,"EPHEMERIS_TYPE":0,"CLASSIFICATION_TYPE":"U","NORAD_CAT_ID":45138,"ELEMENT_SET_NO":999,"REV_AT_EPOCH":28513,"BSTAR":5.5163466e-5,"MEAN_MOTION_DOT":3.2e-7,"MEAN_MOTION_DDOT":0},{"OBJECT_NAME":"ONEWEB-0026","OBJECT_ID":"2020-008J","EPOCH":"2025-12-20T03:59:31.057152","MEAN_MOTION":13.11419218,"ECCENTRICITY":0.00015666,"INCLINATION":87.8855,"RA_OF_ASC_NODE":56.7125,"ARG_OF_PERICENTER":101.6903,"MEAN_ANOMALY":258.4401,"EPHEMERIS_TYPE":0,"CLASSIFICATION_TYPE":"U","NORAD_CAT_ID":45139,"ELEMENT_SET_NO":999,"REV_AT_EPOCH":28764,"BSTAR":0.0016430737,"MEAN_MOTION_DOT":5.95e-6,"MEAN_MOTION_DDOT":0},{"OBJECT_NAME":"ONEWEB-0028","OBJECT_ID":"2020-008K","EPOCH":"2025-12-20T02:57:15.347520","MEAN_MOTION":13.11413879,"ECCENTRICITY":0.00023713,"INCLINATION":87.8845,"RA_OF_ASC_NODE":56.7353,"ARG_OF_PERICENTER":106.6669,"MEAN_ANOMALY":253.4719,"EPHEMERIS_TYPE":0,"CLASSIFICATION_TYPE":"U","NORAD_CAT_ID":45140,"ELEMENT_SET_NO":999,"REV_AT_EPOCH":28515,"BSTAR":-0.00094735919,"MEAN_MOTION_DOT":-3.23e-6,"MEAN_MOTION_DDOT":0},{"OBJECT_NAME":"ONEWEB-0032","OBJECT_ID":"2020-008L","EPOCH":"2025-12-20T04:07:49.891872","MEAN_MOTION":13.10373069,"ECCENTRICITY":0.00018853,"INCLINATION":87.8803,"RA_OF_ASC_NODE":71.9616,"ARG_OF_PERICENTER":106.358,"MEAN_ANOMALY":253.7755,"EPHEMERIS_TYPE":0,"CLASSIFICATION_TYPE":"U","NORAD_CAT_ID":45141,"ELEMENT_SET_NO":999,"REV_AT_EPOCH":28485,"BSTAR":-0.0015394689,"MEAN_MOTION_DOT":-5.25e-6,"MEAN_MOTION_DDOT":0},{"OBJECT_NAME":"ONEWEB-0033","OBJECT_ID":"2020-008M","EPOCH":"2025-12-20T05:21:57.388032","MEAN_MOTION":13.10369815,"ECCENTRICITY":0.0001282,"INCLINATION":87.8798,"RA_OF_ASC_NODE":71.9634,"ARG_OF_PERICENTER":91.9105,"MEAN_ANOMALY":268.2169,"EPHEMERIS_TYPE":0,"CLASSIFICATION_TYPE":"U","NORAD_CAT_ID":45142,"ELEMENT_SET_NO":999,"REV_AT_EPOCH":28477,"BSTAR":0.0012800662,"MEAN_MOTION_DOT":4.6e-6,"MEAN_MOTION_DDOT":0}]
