ONEWEB-0012             
1 44057U 19010A   25354.12832574  .00000101  00000+0  23015-3 0  9997
2 44057  87.9036 264.4441 0001969  82.5073 277.6281 13.16597049328001
ONEWEB-0010             
1 44058U 19010B   25354.22962018  .00019039  00000+0  49751-1 0  9999
2 44058  87.9046 264.4143 0002310  63.2217 296.9149 13.16478680328061
ONEWEB-0008             
1 44059U 19010C   25354.17899107 -.00000300  00000+0 -81931-3 0  9993
2 44059  87.9047 264.4216 0001534  78.3984 281.7319 13.16593868328178
ONEWEB-0007             
1 44060U 19010D   25354.22404009  .00000108  00000+0  25200-3 0  9995
2 44060  87.9002 294.9390 0002129  72.6300 287.5063 13.15548654327847
ONEWEB-0006             
1 44061U 19010E   25354.22799522  .00000120  00000+0  28488-3 0  9998
2 44061  87.9010 294.8849 0001921  68.6105 291.5231 13.15547789327897
ONEWEB-0011             
1 44062U 19010F   25353.89207485  .00000040  00000+0  71470-4 0  9994
2 44062  87.9004 294.9613 0001648  76.0089 284.1225 13.15550302327842
ONEWEB-0013             
1 45131U 20008A   25353.98557217 -.00000670  00000+0 -19833-2 0  9996
2 45131  87.8509  89.0227 0002648 111.7691 248.3718 13.09439557282615
ONEWEB-0017             
1 45132U 20008B   25354.17044807 -.00000562  00000+0 -16460-2 0  9998
2 45132  87.8804  71.9627 0001566  97.0854 263.0452 13.10371500284507
ONEWEB-0020             
1 45133U 20008C   25354.14059011  .00000609  00000+0  17090-2 0  9999
2 45133  87.8808  71.9555 0001593 109.6254 250.5046 13.10371705284895
ONEWEB-0021             
1 45134U 20008D   25354.23187636  .00000053  00000+0  11554-3 0  9998
2 45134  87.8800  71.9663 0001804 102.3828 257.7501 13.10369800285215
ONEWEB-0023             
1 45136U 20008F   25354.16629942 -.00000477  00000+0 -14031-2 0  9997
2 45136  87.8798  71.9601 0001886 107.1425 252.9909 13.10371603284639
ONEWEB-0024             
1 45137U 20008G   25353.98621300  .00000592  00000+0  16600-2 0  9997
2 45137  87.8823  71.9676 0001736 102.3883 257.7439 13.10371771284772
ONEWEB-0025             
1 45138U 20008H   25354.23270171  .00000032  00000+0  55163-4 0  9991
2 45138  87.8806  71.9211 0002059 106.9899 253.1454 13.10369552285137
ONEWEB-0026             
1 45139U 20008J   25354.16633168  .00000595  00000+0  16431-2 0  9990
2 45139  87.8855  56.7125 0001566 101.6903 258.4401 13.11419218287641
ONEWEB-0028             
1 45140U 20008K   25354.12309430 -.00000323  00000+0 -94736-3 0  9996
2 45140  87.8845  56.7353 0002371 106.6669 253.4719 13.11413879285152
ONEWEB-0032             
1 45141U 20008L   25354.17210523 -.00000525  00000+0 -15395-2 0  9993
2 45141  87.8803  71.9616 0001885 106.3580 253.7755 13.10373069284850
ONEWEB-0033             
1 45142U 20008M   25354.22358088  .00000460  00000+0  12801-2 0  9994
2 45142  87.8798  71.9634 0001282  91.9105 268.2169 13.10369815284772
